AJISAI (EGS)            
1 16908U 86061A   25111.52231705 -.00000086  00000+0  82395-4 0  9995
2 16908  50.0119   4.0010 0011203 186.3810 237.5318 12.44511459428235
AMC-3                   
1 24936U 97050A   25111.30369959 -.00000254  00000+0  00000+0 0  9999
2 24936   7.1106  68.8224 0003194 320.1247 218.0061  1.00272079101218
ASTRA 2A                
1 25462U 98050A   25111.54228366  .00000117  00000+0  00000+0 0  9994
2 25462   6.0286  73.8505 0002764 319.3311  63.0018  0.99379302 97513
ABS-6                   
1 25924U 99053A   25111.13532484 -.00000114  00000+0  00000+0 0  9993
2 25924   0.0306 103.3826 0002572 295.4797  18.3218  1.00279413 93603
ASIASTAR                
1 26107U 00016A   25111.33879928 -.00000325  00000+0  00000+0 0  9991
2 26107   8.1397  62.5296 0004651 336.9522  37.1530  1.00268724 91922
AMC-6                   
1 26580U 00067A   25110.74454400  .00000093  00000+0  00000+0 0  9991
2 26580   0.0863  76.2955 0002920 312.1636 313.5937  1.00273362 89652
AQUA                    
1 27424U 02022A   25111.45057997  .00001976  00000+0  41124-3 0  9998
2 27424  98.3735  69.1077 0001100 108.4456   1.6901 14.61160421221701
ASIASAT 4               
1 27718U 03014A   25111.41869844 -.00000216  00000+0  00000+0 0  9995
2 27718   3.6247  81.0540 0002245 304.0796 122.8832  1.00271393 80694
ABS-4 (MOBISAT-1)       
1 28184U 04007A   25111.51934706  .00000046  00000+0  00000+0 0  9997
2 28184   4.9728  77.1239 0005559 316.1289  64.5468  1.00274315 77356
AMC-11                  
1 28252U 04017A   25111.23586455 -.00000046  00000+0  00000+0 0  9998
2 28252   0.0531  63.2287 0003319 340.5719 139.5631  1.00271674 76473
APRIZESAT 2             
1 28366U 04025A   25111.03588752  .00000437  00000+0  14867-3 0  9996
2 28366  98.0774 296.7472 0107308  84.8568 276.4856 14.37767726 90981
APRIZESAT 1             
1 28372U 04025G   25111.51477191  .00000807  00000+0  21190-3 0  9998
2 28372  98.6226 105.9797 0044888 358.6783   1.4285 14.51406361100773
AURA                    
1 28376U 04026A   25111.47139348  .00001938  00000+0  41095-3 0  9999
2 28376  98.2903  61.1933 0001365  91.8616 268.2741 14.60302654104688
ANIK F2                 
1 28378U 04027A   25110.86754377 -.00000044  00000+0  00000+0 0  9994
2 28378   2.1952  84.8885 0004349 325.3901   0.1216  1.00271989 37022
AMC-15                  
1 28446U 04041A   25111.18447713 -.00000085  00000+0  00000+0 0  9990
2 28446   0.0533  63.6538 0002356 328.6724 138.5396  1.00271913 75119
ANIK F1R                
1 28868U 05036A   25111.15391723 -.00000069  00000+0  00000+0 0  9991
2 28868   3.2276  81.8226 0003350 322.2539 113.5220  1.00271799 71927
ASTRA 1KR               
1 29055U 06012A   25110.89343412  .00000124  00000+0  00000+0 0  9998
2 29055   0.0250 344.9643 0001140 322.8587 242.2484  1.00269014 41480
ARIRANG-2 (KOMPSAT-2)   
1 29268U 06031A   25111.51725786  .00000778  00000+0  15596-3 0  9998
2 29268  97.8408 311.3415 0013921 336.4664  76.6710 14.64244257999857
ANIK F3                 
1 31102U 07009A   25110.79619674  .00000004  00000+0  00000+0 0  9993
2 31102   0.1025  87.1286 0002510 301.1839 348.7376  1.00270935 42328
ASTRA 1L                
1 31306U 07016A   25111.17904360  .00000125  00000+0  00000+0 0  9993
2 31306   0.2319  76.9567 0003384 318.2939 258.1289  1.00272882 65818
ASTRA 4A                
1 32299U 07057A   25110.89056706  .00000037  00000+0  00000+0 0  9992
2 32299   0.0289 291.1460 0002826 102.0596 141.4311  1.00273733 47417
AMC-14                  
1 32708U 08011A   25110.98340324  .00000078  00000+0  00000+0 0  9995
2 32708  23.4879  25.5987 0044467   0.6801 194.5818  1.00274354 63866
AAUSAT-II               
1 32788U 08021F   25111.47504160  .00355008  00000+0  23570-2 0  9995
2 32788  97.6011 107.6867 0009187 130.1356 230.0714 15.74410640925749
AMOS-3                  
1 32794U 08022A   25111.10300534 -.00000031  00000+0  00000+0 0  9996
2 32794   0.0250 133.5022 0002266 215.8900 253.0030  1.00272916 62213
AMC-21                  
1 33275U 08038B   25110.78201272  .00000042  00000+0  00000+0 0  9991
2 33275   1.8543  85.6820 0002962 311.8320 328.2199  1.00271582 61253
ASTRA 1M                
1 33436U 08057A   25111.17904360  .00000124  00000+0  00000+0 0  9994
2 33436   0.0703  74.7220 0002880   5.2901 213.1189  1.00272481 60240
APRIZESAT 4             
1 35684U 09041D   25111.13510366  .00001418  00000+0  17933-3 0  9994
2 35684  98.1893 172.1056 0042828 248.0583 111.6075 14.82909404848846
APRIZESAT 3             
1 35686U 09041F   25111.30938787  .00003574  00000+0  32567-3 0  9991
2 35686  98.1467 241.5236 0064336  20.3972 339.9794 14.94264963853382
ASIASAT 5               
1 35696U 09042A   25110.90959387 -.00000303  00000+0  00000+0 0  9998
2 35696   0.0214 124.8887 0001631 242.9022 269.4039  1.00270672 57479
AMAZONAS 2              
1 35942U 09054A   25111.16314449 -.00000278  00000+0  00000+0 0  9999
2 35942   0.7198  89.1397 0003414 301.9949 176.2923  1.00270660 56940
ASTRA 3B                
1 36581U 10021A   25110.84419856  .00000142  00000+0  00000+0 0  9996
2 36581   0.3759  89.4951 0003690 312.5444 134.5497  1.00274292 54634
ARABSAT-5A              
1 36745U 10032B   25111.18121561  .00000157  00000+0  00000+0 0  9997
2 36745   0.0752  53.0912 0004757 352.6625 259.4719  1.00273421 54391
AISSAT 1                
1 36797U 10035C   25111.51544227  .00004307  00000+0  40155-3 0  9992
2 36797  98.1418 350.5543 0009754  20.0361 340.1239 14.94768694801309
ALSAT 2A                
1 36798U 10035D   25111.46943169  .00001667  00000+0  26352-3 0  9994
2 36798  97.7677 126.7576 0001937 104.5057 255.6367 14.73564413791687
AEHF-1 (USA 214)        
1 36868U 10039A   25111.54002878  .00000157  00000+0  00000+0 0  9999
2 36868   7.1605  73.4310 0004442 320.4523  40.3303  1.00274169 54218
ASTRA 1N                
1 37775U 11041A   25111.17904360  .00000124  00000+0  00000+0 0  9991
2 37775   0.0862  52.1545 0006030 347.5456 253.4732  1.00272641 50174
APRIZESAT 5             
1 37792U 11044E   25111.32796011  .00002108  00000+0  28120-3 0  9993
2 37792  98.2318  28.3954 0052053 280.7821  78.7532 14.79822018736511
APRIZESAT 6             
1 37793U 11044F   25111.28680991  .00001739  00000+0  25701-3 0  9999
2 37793  98.2655   7.8766 0043864 356.5679 130.2633 14.75965846735048
ARABSAT-5C              
1 37810U 11049B   25111.17921736  .00000127  00000+0  00000+0 0  9998
2 37810   0.0597  19.6821 0002085  35.3320 238.9929  1.00271164 49681
ASIASAT 7               
1 37933U 11069A   25110.91054955 -.00000330  00000+0  00000+0 0  9994
2 37933   0.0175 178.3983 0001304 188.8899 275.2620  1.00270306 40623
APSTAR-7                
1 38107U 12013A   25110.88378083 -.00000098  00000+0  00000+0 0  9996
2 38107   0.0158 194.7980 0002728 210.9056 198.1882  1.00271718 47572
AEHF-2 (USA 235)        
1 38254U 12019A   25110.60079160 -.00000127  00000+0  00000+0 0  9992
2 38254   5.6727  60.2612 0002756 334.0544  14.4176  1.00272109  2749
ARIRANG-3 (KOMPSAT-3)   
1 38338U 12025B   25111.54232045  .00001230  00000+0  25258-3 0  9990
2 38338  98.3021  64.8245 0006950 357.3271   2.7892 14.62421280689839
AEROCUBE 4.5A           
1 38767U 12048K   25110.79352422  .00035751  00000+0  10199-2 0  9991
2 38767  64.6499  31.0591 0101425 287.9866  71.0231 15.30810933307196
ASTRA 2F                
1 38778U 12051A   25110.89517172  .00000154  00000+0  00000+0 0  9999
2 38778   0.0518 252.2442 0001023  42.8331 264.5963  1.00269577 36907
AMAZONAS 3              
1 39078U 13006A   25111.16314449 -.00000279  00000+0  00000+0 0  9996
2 39078   0.0178 196.7051 0001511 166.5715 203.9673  1.00272043 44730
AZERSPACE 1             
1 39079U 13006B   25111.53447661  .00000136  00000+0  00000+0 0  9992
2 39079   0.0327  58.4794 0001326 337.9979  51.7860  1.00269876 44709
ANIK G1                 
1 39127U 13014A   25111.53001956 -.00000071  00000+0  00000+0 0  9997
2 39127   0.0405  64.9803 0002153 306.3478 282.0176  1.00271426 44013
ALPHASAT                
1 39215U 13038A   25111.32272641  .00000139  00000+0  00000+0 0  9993
2 39215   2.9344   4.8166 0002556  60.8748 285.0167  1.00275673 43041
ARIRANG-5 (KOMPSAT-5)   
1 39227U 13042A   25111.50288570  .00003214  00000+0  23368-3 0  9992
2 39227  97.6216 299.0960 0004381 120.5914 239.5745 15.04535436640516
AMOS-4                  
1 39237U 13045A   25110.90600193  .00000011  00000+0  00000+0 0  9994
2 39237   0.0100 182.8904 0003300 193.4610 224.0292  1.00271233 42724
AEHF-3 (USA 246)        
1 39256U 13050A   25111.07905023  .00000037  00000+0  00000+0 0  9998
2 39256   4.2468  70.8116 0087766 179.5395 223.2269  1.00271960 42454
ASTRA 2E                
1 39285U 13056A   25110.89525860  .00000154  00000+0  00000+0 0  9992
2 39285   0.0735 320.0216 0002797  59.7503 180.2389  1.00268978 42189
APRIZESAT 7             
1 39416U 13066A   25111.23150984  .00002888  00000+0  30195-3 0  9997
2 39416  97.7165  67.5740 0037297 167.0043 193.2145 14.89927755618397
APRIZESAT 8             
1 39425U 13066K   25110.82190643  .00001963  00000+0  22511-3 0  9993
2 39425  97.7716  61.0381 0045799 234.2174 125.4780 14.86308938616907
ALICE                   
1 39467U 13072F   25111.14943408  .00007700  00000+0  46157-3 0  9994
2 39467 120.4647 146.9219 0180785 266.3563  91.6810 14.99522338 51789
ABS-2                   
1 39508U 14006A   25110.90446793 -.00000082  00000+0  00000+0 0  9996
2 39508   0.0379  61.0144 0003779 331.2774 217.4882  1.00271656 41088
ATHENA-FIDUS            
1 39509U 14006B   25111.53447661  .00000157  00000+0  00000+0 0  9994
2 39509   0.0152 197.5860 0001553 207.6367  34.8358  1.00270794 41272
AMAZONAS 4A             
1 39616U 14011A   25111.45384226 -.00000249  00000+0  00000+0 0  9990
2 39616   0.0524 167.3442 0002515 239.7236 252.1078  1.00272052 40648
